
SCATSAT 1               
1 41790U 16059H   24329.76684139  .00003442  00000+0  48386-3 0  9990
2 41790  98.2003  14.9088 0056016 278.9066  80.5804 14.76990617 17453
GSAT-18                 
1 41793U 16060A   24329.87271601 -.00000064  00000+0  00000+0 0  9998
2 41793   0.0912  96.1567 0002993 146.7113 209.6427  1.00271613 29820
SKY MUSTER 2 (NBN1B)    
1 41794U 16060B   24329.82712057 -.00000231  00000+0  00000+0 0  9995
2 41794   0.0135 289.6011 0001529 318.0956 259.1615  1.00272460 29813
HIMAWARI-9              
1 41836U 16064A   24329.68799362 -.00000262  00000+0  00000+0 0  9998
2 41836   0.0385 140.4509 0001220  98.7472 213.3832  1.00273156 29496
SHIJIAN-17 (SJ-17)      
1 41838U 16065A   24329.95022975  .00000079  00000+0  00000+0 0  9995
2 41838   4.2988  79.4765 0003453 207.6464 301.3550  1.00269955 29509
XPNAV-1                 
1 41841U 16066A   24330.14518197  .00053744  00000+0  75752-3 0  9996
2 41841  97.3588 350.6335 0007776   7.9609 352.1768 15.56420884448026
CAS-2T & KS-1Q          
1 41847U 16066G   24329.82779247  .00002431  00000+0  35583-3 0  9995
2 41847  98.4450  39.9130 0350795  53.2769 310.0102 14.42442118422648
RAVAN                   
1 41849U 16067B   24329.34042070  .00026781  00000+0  12117-2 0  9993
2 41849  98.0595 157.1926 0010805 200.5749 159.5050 15.20836574440268
CELTEE 1                
1 41850U 16067C   24328.45479406  .00012913  00000+0  78861-3 0  9994
2 41850  98.1067 146.6832 0001645  43.5792 316.5565 15.10441924439432
OPTICUBE 04             
1 41851U 16067D   24329.78499217  .00006521  00000+0  46286-3 0  9998
2 41851  98.0843 141.8471 0016485 236.4026 123.5626 15.05001523439379
AEROCUBE 8D             
1 41852U 16067E   24329.73732816  .00014103  00000+0  81401-3 0  9992
2 41852  98.1111 148.2935 0003928 294.8505  65.2316 15.12459779439627
AEROCUBE 8C             
1 41853U 16067F   24329.48831274  .00014457  00000+0  83359-3 0  9999
2 41853  98.0943 146.2252 0006308 212.6389 147.4451 15.12479784439578
PROMETHEUS 2-1          
1 41854U 16067G   24329.67277713  .00043077  00000+0  15542-2 0  9991
2 41854  98.0947 157.0418 0009068 226.5787 133.4697 15.28347452440144
PROMETHEUS 2-3          
1 41855U 16067H   24329.74087803  .00042213  00000+0  15276-2 0  9994
2 41855  98.0886 156.4489 0007689 238.1960 121.8529 15.28264799440155
YUNHAI-1 01             
1 41857U 16068A   24330.11285029  .00000742  00000+0  28677-3 0  9991
2 41857  98.5928 334.9742 0005017 238.1766 121.8930 14.33101717420330
GSAT0207 (GALILEO 15)   
1 41859U 16069A   24329.17308714  .00000053  00000+0  00000+0 0  9996
2 41859  55.1682 116.8802 0001765 312.5568  47.4129  1.70474437 49682
GSAT0212 (GALILEO 16)   
1 41860U 16069B   24329.02720506  .00000053  00000+0  00000+0 0  9999
2 41860  55.1671 116.8802 0001876  33.4826 326.5139  1.70474678 49938
GSAT0213 (GALILEO 17)   
1 41861U 16069C   24328.22233383  .00000051  00000+0  00000+0 0  9991
2 41861  55.1676 116.9097 0001920 265.0171  94.9446  1.70474960 49781
GSAT0214 (GALILEO 18)   
1 41862U 16069D   24328.36775788  .00000051  00000+0  00000+0 0  9997
2 41862  55.1663 116.8988 0001002 261.4215  98.5510  1.70474731 49919
GOES 16                 
1 41866U 16071A   24329.51229909 -.00000236  00000+0  00000+0 0  9997
2 41866   0.0233 256.7845 0001201  40.8448 235.5636  1.00274099 29399
TIANLIAN 1-04           
1 41869U 16072A   24330.11934775  .00000046  00000+0  00000+0 0  9991
2 41869   0.2323  92.6396 0034518  74.9894 116.6625  1.00271612 29599
GOKTURK 1A              
1 41875U 16073A   24330.12574725  .00001355  00000+0  27538-3 0  9998
2 41875  98.1316 222.2361 0001410  78.1311 282.0049 14.62693721425636
RESOURCESAT-2A          
1 41877U 16074A   24330.10719975  .00000419  00000+0  21045-3 0  9994
2 41877  98.6309  40.1857 0000528 188.3098 171.8071 14.21680158413459
WGS F8 (USA 272)        
1 41879U 16075A   24329.68243649 -.00000190  00000+0  00000+0 0  9999
2 41879   0.0044  13.2634 0000050 343.6662 102.6990  1.00270541 29113
FENGYUN 4A              
1 41882U 16077A   24329.86715883 -.00000183  00000+0  00000+0 0  9991
2 41882   0.8669  85.8211 0009263 338.2405  38.8989  1.00269471 29224
CYGFM05                 
1 41884U 16078A   24329.51517936  .00019881  00000+0  60743-3 0  9993
2 41884  34.9645   2.1425 0011717 220.5053 139.4793 15.32916312440643
CYGFM04                 
1 41885U 16078B   24329.46559274  .00019881  00000+0  58668-3 0  9992
2 41885  34.9394 344.7360 0010867 235.9583 124.0103 15.34021194440902
CYGFM02                 
1 41886U 16078C   24329.44960355  .00020498  00000+0  59108-3 0  9993
2 41886  34.9474 346.6109 0013621 228.3993 131.5558 15.34706790440837
CYGFM01                 
1 41887U 16078D   24329.52112764  .00019466  00000+0  59980-3 0  9997
2 41887  34.9478   6.1456 0012057 204.6751 155.3390 15.32646758440570
CYGFM08                 
1 41888U 16078E   24329.49827224  .00019998  00000+0  59344-3 0  9992
2 41888  34.9508 352.8980 0013704 228.4207 131.5335 15.33810047440769
CYGFM07                 
1 41890U 16078G   24329.43804239  .00020471  00000+0  60008-3 0  9997
2 41890  34.9516 344.2049 0011700 241.8484 118.1051 15.34217410440753
CYGFM03                 
1 41891U 16078H   24329.48464561  .00020499  00000+0  60388-3 0  9994
2 41891  34.9478 345.2392 0010618 228.4241 131.5567 15.34073703440747
ECHOSTAR 19             
1 41893U 16079A   24329.99349677 -.00000124  00000+0  00000+0 0  9998
2 41893   0.0148 313.8420 0001351 292.7936  78.3510  1.00269219 29037
ARASE (ERG)             
1 41896U 16080A   24329.67105001  .00004889  00000+0  47886-2 0  9996
2 41896  31.3310 235.1680 7021934  58.5859 351.4436  2.56294915 73629
TANSAT                  
1 41898U 16081A   24330.13573392  .00001283  00000+0  28265-3 0  9990
2 41898  98.4914 304.2268 0019496 267.4914  92.4053 14.59079731421617
YIJIAN                  
1 41899U 16081B   24329.88852682  .00002428  00000+0  52312-3 0  9995
2 41899  98.4858 301.2715 0019994 269.8742  90.0166 14.59278035421513
SPARK 1                 
1 41900U 16081C   24329.89000327  .00002075  00000+0  45641-3 0  9995
2 41900  98.4905 298.2164 0022931 278.4675  81.3925 14.58442868421240
SPARK 2                 
1 41901U 16081D   24329.89655541  .00002323  00000+0  51693-3 0  9990
2 41901  98.4824 294.4255 0024703 281.2106  78.6315 14.57762231421138
JCSAT-110A (JCSAT-15)   
1 41903U 16082A   24329.49818848 -.00000339  00000+0  00000+0 0  9998
2 41903   0.0180 309.0038 0000616 316.0738  88.2998  1.00271590 29046
STAR ONE D1             
1 41904U 16082B   24329.85309785 -.00000197  00000+0  00000+0 0  9996
2 41904   0.0415  87.3509 0002651 167.4649  32.6234  1.00271648 29069
SUPERVIEW-1 01          
1 41907U 16083A   24330.12481678  .00206185  00000+0  15212-2 0  9992
2 41907  97.4290  71.8295 0007164 289.1636  70.8852 15.72364210438779
SUPERVIEW-1 02          
1 41908U 16083B   24330.15090947  .00351517  00000+0  15202-2 0  9990
2 41908  97.2312  38.7674 0006470 291.5025  68.5555 15.84000689438981
TJS-2                   
1 41911U 17001A   24329.88298475  .00000007  00000+0  00000+0 0  9991
2 41911   0.2083  92.3002 0002085 209.5162 146.8724  1.00272642 29015
JILIN-1 03              
1 41914U 17002B   24330.11188418  .00017972  00000+0  71751-3 0  9992
2 41914  97.2102 340.5942 0010251  60.7754 299.4508 15.25158865434641
KAIDUN 1                
1 41915U 17002C   24330.15481096  .00041171  00000+0  10192-2 0  9994
2 41915  97.1856 353.9754 0006098  35.3892 324.7759 15.40297167435558
IRIDIUM 106             
1 41917U 17003A   24329.50530280  .00000286  00000+0  94979-4 0  9993
2 41917  86.3948 326.5993 0002089  80.8005 279.3427 14.34218129411554
IRIDIUM 103             
1 41918U 17003B   24329.42284973  .00000191  00000+0  61275-4 0  9998
2 41918  86.3949 326.5346 0002816  81.6616 278.4899 14.34218038411566
IRIDIUM 109             
1 41919U 17003C   24328.94081714  .00000306  00000+0  10207-3 0  9999
2 41919  86.3952 326.7868 0002496  93.8161 266.3320 14.34221547411469
IRIDIUM 102             
1 41920U 17003D   24329.95562482  .00000104  00000+0  29917-4 0  9994
2 41920  86.3947 326.2976 0002226  92.3988 267.7462 14.34217699411692
IRIDIUM 105             
1 41921U 17003E   24328.94960915  .00000385  00000+0  13027-3 0  9991
2 41921  86.3937 295.1374 0002314  82.4184 277.7274 14.34219099413403
IRIDIUM 104             
1 41922U 17003F   24329.41016534  .00000296  00000+0  98561-4 0  9992
2 41922  86.3950 326.5597 0002829  96.7967 263.3551 14.34220145411606
IRIDIUM 114             
1 41923U 17003G   24329.34673583  .00000334  00000+0  11220-3 0  9997
2 41923  86.3951 326.5719 0002436  86.5292 273.6183 14.34218760411577
IRIDIUM 108             
1 41924U 17003H   24329.79363794  .00000123  00000+0  37014-4 0  9993
2 41924  86.3933 294.6987 0002037  82.4396 277.7031 14.34217710413491
IRIDIUM 112             
1 41925U 17003J   24330.03173619  .00000202  00000+0  64985-4 0  9993
2 41925  86.3946 326.1532 0002569  95.7821 264.3668 14.34218595411727
IRIDIUM 111             
1 41926U 17003K   24329.46088992  .00000221  00000+0  71919-4 0  9994
2 41926  86.3951 326.4503 0002345  84.7721 275.3742 14.34226170411592
SBIRS GEO-4 (USA 273)   
1 41937U 17004A   24330.06499941 -.00000130  00000+0  00000+0 0  9993
2 41937   1.4545  12.6720 0002418 234.7087 103.7327  1.00271783 28898
HISPASAT 36W-1          
1 41942U 17006A   24330.09980267 -.00000230  00000+0  00000+0 0  9991
2 41942   0.0080 268.8360 0001083 331.3125 184.3360  1.00272545 28824
TELKOM 3S               
1 41944U 17007A   24330.06368771 -.00000348  00000+0  00000+0 0  9991
2 41944   0.0343  92.4255 0002832 167.0418 305.9825  1.00271696 28502
